{
  "type": "FeatureCollection",
  "features": [
    {
      "type": "Feature",
      "properties": {
        "norad_id": 33844,
        "name": "COSMOS 2251 DEB",
        "group": "cosmos-2251-debris",
        "lat": -53.307341676487376,
        "lon": 2.572034938701767,
        "alt_km": 790.8352750643498,
        "timestamp": "2025-12-27T21:25:02.909567+00:00",
        "meta_object_name": "COSMOS 2251 DEB",
        "meta_object_id": "1993-036CM",
        "meta_epoch": "2025-12-27T12:20:12.038208",
        "meta_mean_motion": 14.33746182,
        "meta_eccentricity": 0.004728,
        "meta_inclination": 74.0664,
        "meta_ra_of_asc_node": 25.8049,
        "meta_arg_of_pericenter": 43.0544,
        "meta_mean_anomaly": 108.8967,
        "meta_ephemeris_type": 0,
        "meta_classification_type": "U",
        "meta_norad_cat_id": 33844,
        "meta_element_set_no": 999,
        "meta_rev_at_epoch": 87937,
        "meta_bstar": 0.00040801,
        "meta_mean_motion_dot": 1.122e-05,
        "meta_mean_motion_ddot": 0,
        "tle_line1": "1 33844U 93036CM  25361.51402822  .00001122  00000+0  40801-3 0  9995",
        "tle_line2": "2 33844  74.0664  25.8049 0047280  43.0544 108.8967 14.33746182879372"
      },
      "geometry": {
        "type": "Point",
        "coordinates": [
          2.572034938701767,
          -53.307341676487376
        ]
      }
    },
    {
      "type": "Feature",
      "properties": {
        "norad_id": 33848,
        "name": "COSMOS 2251 DEB",
        "group": "cosmos-2251-debris",
        "lat": -29.92709537129958,
        "lon": -40.03932430166805,
        "alt_km": 731.8876837358584,
        "timestamp": "2025-12-27T21:25:02.909578+00:00",
        "meta_object_name": "COSMOS 2251 DEB",
        "meta_object_id": "1993-036CR",
        "meta_epoch": "2025-12-27T08:48:01.769760",
        "meta_mean_motion": 14.44169116,
        "meta_eccentricity": 0.0042062,
        "meta_inclination": 74.0323,
        "meta_ra_of_asc_node": 330.4254,
        "meta_arg_of_pericenter": 22.1639,
        "meta_mean_anomaly": 95.0027,
        "meta_ephemeris_type": 0,
        "meta_classification_type": "U",
        "meta_norad_cat_id": 33848,
        "meta_element_set_no": 999,
        "meta_rev_at_epoch": 88042,
        "meta_bstar": 0.0013985,
        "meta_mean_motion_dot": 4.825e-05,
        "meta_mean_motion_ddot": 0,
        "tle_line1": "1 33848U 93036CR  25361.36668715  .00004825  00000+0  13985-2 0  9992",
        "tle_line2": "2 33848  74.0323 330.4254 0042062  22.1639  95.0027 14.44169116880427"
      },
      "geometry": {
        "type": "Point",
        "coordinates": [
          -40.03932430166805,
          -29.92709537129958
        ]
      }
    },
    {
      "type": "Feature",
      "properties": {
        "norad_id": 33892,
        "name": "COSMOS 2251 DEB",
        "group": "cosmos-2251-debris",
        "lat": -23.57068378553866,
        "lon": -98.2997470923273,
        "alt_km": 834.6838061534054,
        "timestamp": "2025-12-27T21:25:02.909589+00:00",
        "meta_object_name": "COSMOS 2251 DEB",
        "meta_object_id": "1993-036CV",
        "meta_epoch": "2025-12-27T07:15:50.025312",
        "meta_mean_motion": 14.23385068,
        "meta_eccentricity": 0.0111951,
        "meta_inclination": 73.8025,
        "meta_ra_of_asc_node": 75.4904,
        "meta_arg_of_pericenter": 103.8272,
        "meta_mean_anomaly": 318.6959,
        "meta_ephemeris_type": 0,
        "meta_classification_type": "U",
        "meta_norad_cat_id": 33892,
        "meta_element_set_no": 999,
        "meta_rev_at_epoch": 87162,
        "meta_bstar": 0.00063909,
        "meta_mean_motion_dot": 1.521e-05,
        "meta_mean_motion_ddot": 0,
        "tle_line1": "1 33892U 93036CV  25361.30266233  .00001521  00000+0  63909-3 0  9996",
        "tle_line2": "2 33892  73.8025  75.4904 0111951 103.8272 318.6959 14.23385068871627"
      },
      "geometry": {
        "type": "Point",
        "coordinates": [
          -98.2997470923273,
          -23.57068378553866
        ]
      }
    },
    {
      "type": "Feature",
      "properties": {
        "norad_id": 33894,
        "name": "COSMOS 2251 DEB",
        "group": "cosmos-2251-debris",
        "lat": -39.00889463268326,
        "lon": -48.01807705611716,
        "alt_km": 1057.0540623245251,
        "timestamp": "2025-12-27T21:25:02.909600+00:00",
        "meta_object_name": "COSMOS 2251 DEB",
        "meta_object_id": "1993-036CX",
        "meta_epoch": "2025-12-26T07:28:06.751200",
        "meta_mean_motion": 13.21329669,
        "meta_eccentricity": 0.0578513,
        "meta_inclination": 73.7663,
        "meta_ra_of_asc_node": 328.0775,
        "meta_arg_of_pericenter": 245.6983,
        "meta_mean_anomaly": 108.2665,
        "meta_ephemeris_type": 0,
        "meta_classification_type": "U",
        "meta_norad_cat_id": 33894,
        "meta_element_set_no": 999,
        "meta_rev_at_epoch": 80887,
        "meta_bstar": 0.00063858,
        "meta_mean_motion_dot": 6.11e-06,
        "meta_mean_motion_ddot": 0,
        "tle_line1": "1 33894U 93036CX  25360.31118925  .00000611  00000+0  63858-3 0  9994",
        "tle_line2": "2 33894  73.7663 328.0775 0578513 245.6983 108.2665 13.21329669808870"
      },
      "geometry": {
        "type": "Point",
        "coordinates": [
          -48.01807705611716,
          -39.00889463268326
        ]
      }
    },
    {
      "type": "Feature",
      "properties": {
        "norad_id": 33896,
        "name": "COSMOS 2251 DEB",
        "group": "cosmos-2251-debris",
        "lat": 37.20896679096573,
        "lon": 141.9538774769808,
        "alt_km": 834.9491373626524,
        "timestamp": "2025-12-27T21:25:02.909611+00:00",
        "meta_object_name": "COSMOS 2251 DEB",
        "meta_object_id": "1993-036CZ",
        "meta_epoch": "2025-12-27T09:29:51.374400",
        "meta_mean_motion": 14.19075586,
        "meta_eccentricity": 0.0127313,
        "meta_inclination": 73.7667,
        "meta_ra_of_asc_node": 130.075,
        "meta_arg_of_pericenter": 303.4162,
        "meta_mean_anomaly": 77.9599,
        "meta_ephemeris_type": 0,
        "meta_classification_type": "U",
        "meta_norad_cat_id": 33896,
        "meta_element_set_no": 999,
        "meta_rev_at_epoch": 86948,
        "meta_bstar": 0.00075827,
        "meta_mean_motion_dot": 1.69e-05,
        "meta_mean_motion_ddot": 0,
        "tle_line1": "1 33896U 93036CZ  25361.39573350  .00001690  00000+0  75827-3 0  9999",
        "tle_line2": "2 33896  73.7667 130.0750 0127313 303.4162  77.9599 14.19075586869486"
      },
      "geometry": {
        "type": "Point",
        "coordinates": [
          141.9538774769808,
          37.20896679096573
        ]
      }
    },
    {
      "type": "Feature",
      "properties": {
        "norad_id": 33899,
        "name": "COSMOS 2251 DEB",
        "group": "cosmos-2251-debris",
        "lat": -16.390919764453056,
        "lon": -118.39255114245155,
        "alt_km": 687.7261340629984,
        "timestamp": "2025-12-27T21:25:02.909622+00:00",
        "meta_object_name": "COSMOS 2251 DEB",
        "meta_object_id": "1993-036DC",
        "meta_epoch": "2025-12-27T04:14:10.163328",
        "meta_mean_motion": 14.61309845,
        "meta_eccentricity": 0.00558562,
        "meta_inclination": 74.0533,
        "meta_ra_of_asc_node": 58.1499,
        "meta_arg_of_pericenter": 116.4994,
        "meta_mean_anomaly": 275.2794,
        "meta_ephemeris_type": 0,
        "meta_classification_type": "U",
        "meta_norad_cat_id": 33899,
        "meta_element_set_no": 999,
        "meta_rev_at_epoch": 89050,
        "meta_bstar": 0.00089429364,
        "meta_mean_motion_dot": 4.488e-05,
        "meta_mean_motion_ddot": 0,
        "tle_line1": "1 33899U 93036DC  25361.17650652  .00004488  00000+0  89429-3 0  9990",
        "tle_line2": "2 33899  74.0533  58.1499 0055856 116.4994 275.2794 14.61309845890504"
      },
      "geometry": {
        "type": "Point",
        "coordinates": [
          -118.39255114245155,
          -16.390919764453056
        ]
      }
    },
    {
      "type": "Feature",
      "properties": {
        "norad_id": 33900,
        "name": "COSMOS 2251 DEB",
        "group": "cosmos-2251-debris",
        "lat": 67.84284975846766,
        "lon": 15.716905816385568,
        "alt_km": 667.7943873230915,
        "timestamp": "2025-12-27T21:25:02.909632+00:00",
        "meta_object_name": "COSMOS 2251 DEB",
        "meta_object_id": "1993-036DD",
        "meta_epoch": "2025-12-27T08:35:25.254816",
        "meta_mean_motion": 14.58400769,
        "meta_eccentricity": 0.0046277,
        "meta_inclination": 74.0196,
        "meta_ra_of_asc_node": 332.0095,
        "meta_arg_of_pericenter": 119.7611,
        "meta_mean_anomaly": 30.1772,
        "meta_ephemeris_type": 0,
        "meta_classification_type": "U",
        "meta_norad_cat_id": 33900,
        "meta_element_set_no": 999,
        "meta_rev_at_epoch": 89249,
        "meta_bstar": 0.00049459,
        "meta_mean_motion_dot": 2.297e-05,
        "meta_mean_motion_ddot": 0,
        "tle_line1": "1 33900U 93036DD  25361.35793119  .00002297  00000+0  49459-3 0  9994",
        "tle_line2": "2 33900  74.0196 332.0095 0046277 119.7611  30.1772 14.58400769892494"
      },
      "geometry": {
        "type": "Point",
        "coordinates": [
          15.716905816385568,
          67.84284975846766
        ]
      }
    }
  ]
}